[{"OBJECT_NAME":"STARLINK-35470","OBJECT_ID":"2025-259J","EPOCH":"2026-03-09T22:51:18.565344","MEAN_MOTION":15.27596823,"ECCENTRICITY":0.00014858,"INCLINATION":43.0046,"RA_OF_ASC_NODE":272.6763,"ARG_OF_PERICENTER":275.1198,"MEAN_ANOMALY":84.9484,"EPHEMERIS_TYPE":0,"CLASSIFICATION_TYPE":"U","NORAD_CAT_ID":66430,"ELEMENT_SET_NO":999,"REV_AT_EPOCH":1953,"BSTAR":0.001211249,"MEAN_MOTION_DOT":0.00033236,"MEAN_MOTION_DDOT":0},{"OBJECT_NAME":"OBJECT E","OBJECT_ID":"2026-023E","EPOCH":"2026-03-09T23:33:47.695392","MEAN_MOTION":15.23129165,"ECCENTRICITY":0.00204824,"INCLINATION":96.6311,"RA_OF_ASC_NODE":141.8855,"ARG_OF_PERICENTER":125.9066,"MEAN_ANOMALY":234.4078,"EPHEMERIS_TYPE":0,"CLASSIFICATION_TYPE":"U","NORAD_CAT_ID":67678,"ELEMENT_SET_NO":999,"REV_AT_EPOCH":489,"BSTAR":0.00066049733,"MEAN_MOTION_DOT":0.00015639,"MEAN_MOTION_DDOT":0}]
